ONEWEB-0102             
1 47258U 20100A   25242.89990238  .00000257  00000+0  67814-3 0  9994
2 47258  87.8880  48.3680 0001582  96.6663 263.4645 13.12443887226650
ONEWEB-0109             
1 47259U 20100B   25242.83177788  .00000503  00000+0  13619-2 0  9993
2 47259  87.8872  48.3507 0001558  93.9195 266.2111 13.12443240226475
ONEWEB-0110             
1 47260U 20100C   25242.85771157 -.00000039  00000+0 -14445-3 0  9992
2 47260  87.8875  48.3295 0001588  82.7564 277.3745 13.12441270226649
ONEWEB-0111             
1 47261U 20100D   25242.88853922 -.00000155  00000+0 -46559-3 0  9997
2 47261  87.8881  48.3404 0001665  93.5083 266.6236 13.12443537226487
ONEWEB-0114             
1 47262U 20100E   25242.84312675  .00000398  00000+0  10700-2 0  9994
2 47262  87.8871  48.3436 0001571 103.3478 256.7826 13.12442056226431
ONEWEB-0117             
1 47263U 20100F   25242.83501830  .00000512  00000+0  13866-2 0  9991
2 47263  87.8880  48.3428 0001701  90.7034 269.4290 13.12443296226449
ONEWEB-0118             
1 47264U 20100G   25242.86744970 -.00000311  00000+0 -89926-3 0  9999
2 47264  87.8876  48.3357 0001842 103.1470 256.9864 13.12441151226643
ONEWEB-0119             
1 47265U 20100H   25242.89503334  .00000099  00000+0  23861-3 0  9997
2 47265  87.8876  48.3679 0001652  92.4742 267.6576 13.12444488226625
